{
  "type": "FeatureCollection",
  "features": [
    {
      "type": "Feature",
      "properties": {
        "norad_id": 41599,
        "name": "CARTOSAT-2C",
        "group": "resource",
        "lat": 36.44817492343474,
        "lon": 43.376886733295166,
        "alt_km": 498.2050944853463,
        "timestamp": "2025-12-17T17:50:18.909361+00:00",
        "meta_object_name": "CARTOSAT-2C",
        "meta_object_id": "2016-040A",
        "meta_epoch": "2025-12-17T08:11:32.678880",
        "meta_mean_motion": 15.19155659,
        "meta_eccentricity": 0.00113484,
        "meta_inclination": 97.4764,
        "meta_ra_of_asc_node": 48.5451,
        "meta_arg_of_pericenter": 48.4708,
        "meta_mean_anomaly": 311.7499,
        "meta_ephemeris_type": 0,
        "meta_classification_type": "U",
        "meta_norad_cat_id": 41599,
        "meta_element_set_no": 999,
        "meta_rev_at_epoch": 52610,
        "meta_bstar": 0.00015379134,
        "meta_mean_motion_dot": 3.168e-05,
        "meta_mean_motion_ddot": 0,
        "tle_line1": "1 41599U 16040A   25351.34135045  .00003168  00000+0  15379-3 0  9995",
        "tle_line2": "2 41599  97.4764  48.5451 0011348  48.4708 311.7499 15.19155659526107"
      },
      "geometry": {
        "type": "Point",
        "coordinates": [
          43.376886733295166,
          36.44817492343474
        ]
      }
    },
    {
      "type": "Feature",
      "properties": {
        "norad_id": 41601,
        "name": "SKYSAT-C1",
        "group": "resource",
        "lat": -26.968971342008846,
        "lon": 32.05069850241068,
        "alt_km": 472.5444545271248,
        "timestamp": "2025-12-17T17:50:18.909372+00:00",
        "meta_object_name": "SKYSAT-C1",
        "meta_object_id": "2016-040C",
        "meta_epoch": "2025-12-17T08:33:19.646496",
        "meta_mean_motion": 15.32674268,
        "meta_eccentricity": 0.0001827,
        "meta_inclination": 96.9823,
        "meta_ra_of_asc_node": 28.1102,
        "meta_arg_of_pericenter": 0.0968,
        "meta_mean_anomaly": 0.0275,
        "meta_ephemeris_type": 0,
        "meta_classification_type": "U",
        "meta_norad_cat_id": 41601,
        "meta_element_set_no": 999,
        "meta_rev_at_epoch": 52998,
        "meta_bstar": 0.00024488865,
        "meta_mean_motion_dot": 7.656e-05,
        "meta_mean_motion_ddot": 0,
        "tle_line1": "1 41601U 16040C   25351.35647739  .00007656  00000+0  24489-3 0  9996",
        "tle_line2": "2 41601  96.9823  28.1102 0001827   0.0968   0.0275 15.32674268529987"
      },
      "geometry": {
        "type": "Point",
        "coordinates": [
          32.05069850241068,
          -26.968971342008846
        ]
      }
    },
    {
      "type": "Feature",
      "properties": {
        "norad_id": 41603,
        "name": "LAPAN-A3",
        "group": "resource",
        "lat": 79.53314516403066,
        "lon": -148.13457490494474,
        "alt_km": 468.77436737166863,
        "timestamp": "2025-12-17T17:50:18.909383+00:00",
        "meta_object_name": "LAPAN-A3",
        "meta_object_id": "2016-040E",
        "meta_epoch": "2025-12-17T06:26:15.478080",
        "meta_mean_motion": 15.31589311,
        "meta_eccentricity": 0.00091919,
        "meta_inclination": 97.1424,
        "meta_ra_of_asc_node": 348.66,
        "meta_arg_of_pericenter": 315.8152,
        "meta_mean_anomaly": 44.2355,
        "meta_ephemeris_type": 0,
        "meta_classification_type": "U",
        "meta_norad_cat_id": 41603,
        "meta_element_set_no": 999,
        "meta_rev_at_epoch": 52695,
        "meta_bstar": 0.00011306942,
        "meta_mean_motion_dot": 3.378e-05,
        "meta_mean_motion_ddot": 0,
        "tle_line1": "1 41603U 16040E   25351.26823470  .00003378  00000+0  11307-3 0  9998",
        "tle_line2": "2 41603  97.1424 348.6600 0009191 315.8152  44.2355 15.31589311526952"
      },
      "geometry": {
        "type": "Point",
        "coordinates": [
          -148.13457490494474,
          79.53314516403066
        ]
      }
    },
    {
      "type": "Feature",
      "properties": {
        "norad_id": 41604,
        "name": "BIROS",
        "group": "resource",
        "lat": -80.91234717774554,
        "lon": 152.5130411617327,
        "alt_km": 306.73620921230395,
        "timestamp": "2025-12-17T17:50:18.909393+00:00",
        "meta_object_name": "BIROS",
        "meta_object_id": "2016-040F",
        "meta_epoch": "2025-12-17T01:38:28.018176",
        "meta_mean_motion": 15.91374063,
        "meta_eccentricity": 0.00037455,
        "meta_inclination": 97.0679,
        "meta_ra_of_asc_node": 22.68,
        "meta_arg_of_pericenter": 137.3432,
        "meta_mean_anomaly": 222.8134,
        "meta_ephemeris_type": 0,
        "meta_classification_type": "U",
        "meta_norad_cat_id": 41604,
        "meta_element_set_no": 999,
        "meta_rev_at_epoch": 52941,
        "meta_bstar": 0.00054683239,
        "meta_mean_motion_dot": 0.00173773,
        "meta_mean_motion_ddot": 1.3037972e-05,
        "tle_line1": "1 41604U 16040F   25351.06837984  .00173773  13038-4  54683-3 0  9993",
        "tle_line2": "2 41604  97.0679  22.6800 0003745 137.3432 222.8134 15.91374063529417"
      },
      "geometry": {
        "type": "Point",
        "coordinates": [
          152.5130411617327,
          -80.91234717774554
        ]
      }
    },
    {
      "type": "Feature",
      "properties": {
        "norad_id": 41727,
        "name": "GAOFEN-3",
        "group": "resource",
        "lat": 66.571961302889,
        "lon": -22.693808562297118,
        "alt_km": 743.7746100248996,
        "timestamp": "2025-12-17T17:50:18.909404+00:00",
        "meta_object_name": "GAOFEN-3",
        "meta_object_id": "2016-049A",
        "meta_epoch": "2025-12-17T07:32:01.746240",
        "meta_mean_motion": 14.4221456,
        "meta_eccentricity": 0.00012968,
        "meta_inclination": 98.4038,
        "meta_ra_of_asc_node": 356.8309,
        "meta_arg_of_pericenter": 59.2902,
        "meta_mean_anomaly": 300.8416,
        "meta_ephemeris_type": 0,
        "meta_classification_type": "U",
        "meta_norad_cat_id": 41727,
        "meta_element_set_no": 999,
        "meta_rev_at_epoch": 49243,
        "meta_bstar": 2.50262e-06,
        "meta_mean_motion_dot": -3.5e-07,
        "meta_mean_motion_ddot": 0,
        "tle_line1": "1 41727U 16049A   25351.31390910 -.00000035  00000+0  25026-5 0  9991",
        "tle_line2": "2 41727  98.4038 356.8309 0001296  59.2902 300.8416 14.42214560492437"
      },
      "geometry": {
        "type": "Point",
        "coordinates": [
          -22.693808562297118,
          66.571961302889
        ]
      }
    },
    {
      "type": "Feature",
      "properties": {
        "norad_id": 41771,
        "name": "SKYSAT-C4",
        "group": "resource",
        "lat": 79.66090291490836,
        "lon": -25.178889391618,
        "alt_km": 430.82118563063614,
        "timestamp": "2025-12-17T17:50:18.909414+00:00",
        "meta_object_name": "SKYSAT-C4",
        "meta_object_id": "2016-058B",
        "meta_epoch": "2025-12-17T00:21:19.311840",
        "meta_mean_motion": 15.42373505,
        "meta_eccentricity": 0.00019016,
        "meta_inclination": 96.9372,
        "meta_ra_of_asc_node": 15.995,
        "meta_arg_of_pericenter": 132.1299,
        "meta_mean_anomaly": 228.0111,
        "meta_ephemeris_type": 0,
        "meta_classification_type": "U",
        "meta_norad_cat_id": 41771,
        "meta_element_set_no": 999,
        "meta_rev_at_epoch": 51733,
        "meta_bstar": 0.00029968185,
        "meta_mean_motion_dot": 0.0001286,
        "meta_mean_motion_ddot": 0,
        "tle_line1": "1 41771U 16058B   25351.01480685  .00012860  00000+0  29968-3 0  9991",
        "tle_line2": "2 41771  96.9372  15.9950 0001901 132.1299 228.0111 15.42373505517334"
      },
      "geometry": {
        "type": "Point",
        "coordinates": [
          -25.178889391618,
          79.66090291490836
        ]
      }
    },
    {
      "type": "Feature",
      "properties": {
        "norad_id": 41772,
        "name": "SKYSAT-C5",
        "group": "resource",
        "lat": -30.114148174439546,
        "lon": -148.84456300681006,
        "alt_km": 468.78582093857676,
        "timestamp": "2025-12-17T17:50:18.909424+00:00",
        "meta_object_name": "SKYSAT-C5",
        "meta_object_id": "2016-058C",
        "meta_epoch": "2025-12-17T02:50:02.420448",
        "meta_mean_motion": 15.33955004,
        "meta_eccentricity": 0.00037744,
        "meta_inclination": 97.0757,
        "meta_ra_of_asc_node": 34.6878,
        "meta_arg_of_pericenter": 272.9339,
        "meta_mean_anomaly": 87.1473,
        "meta_ephemeris_type": 0,
        "meta_classification_type": "U",
        "meta_norad_cat_id": 41772,
        "meta_element_set_no": 999,
        "meta_rev_at_epoch": 51583,
        "meta_bstar": 0.00023470132,
        "meta_mean_motion_dot": 7.636e-05,
        "meta_mean_motion_ddot": 0,
        "tle_line1": "1 41772U 16058C   25351.11808357  .00007636  00000+0  23470-3 0  9990",
        "tle_line2": "2 41772  97.0757  34.6878 0003774 272.9339  87.1473 15.33955004515837"
      },
      "geometry": {
        "type": "Point",
        "coordinates": [
          -148.84456300681006,
          -30.114148174439546
        ]
      }
    }
  ]
}